IRIDIUM 126             
1 42809U 17039G   25040.44336718  .00000099  00000+0  28403-4 0  9998
2 42809  86.3999 199.5297 0002066 100.7161 259.4268 14.34216613399324
IRIDIUM 124             
1 42810U 17039H   25040.31811998  .00000668  00000+0  19248-3 0  9992
2 42810  86.4532 136.4376 0002318  88.7662 271.3804 14.43285745404024
IRIDIUM 128             
1 42811U 17039J   25040.57363727  .00000098  00000+0  27828-4 0  9994
2 42811  86.3943 230.9650 0002370  87.7917 272.3550 14.34217658399373
IRIDIUM 121             
1 42812U 17039K   25040.39262708  .00000092  00000+0  25805-4 0  9999
2 42812  86.4000 199.5752 0002120  89.3768 270.7671 14.34217422399192
IRIDIUM 133             
1 42955U 17061A   25040.60535517  .00000043  00000+0  82298-5 0  9993
2 42955  86.3945 231.0572 0002211  91.8469 268.2980 14.34217864384173
IRIDIUM 100             
1 42956U 17061B   25040.59901234  .00000061  00000+0  14610-4 0  9997
2 42956  86.3942 230.9900 0002222  91.9607 268.1844 14.34217870384176
IRIDIUM 122             
1 42957U 17061C   25040.56729881  .00000069  00000+0  17657-4 0  9993
2 42957  86.3943 231.0023 0002193  97.4566 262.6879 14.34217885384171
IRIDIUM 129             
1 42958U 17061D   25040.59266873  .00000041  00000+0  76550-5 0  9992
2 42958  86.3944 231.0533 0001690  95.2900 264.8489 14.34217803384191
